LANDSAT 5               
1 14780U 84021A   09011.41827192 -.00000002  00000-0  96634-5 0  2168
2 14780  98.2656  80.3986 0001875 224.8016 135.3036 14.57084336322555
SPOT 2                  
1 20436U 90005A   09011.37604545  .00000169  00000-0  10000-3 0  9691
2 20436  98.6841  84.5731 0000610  90.6760  45.1657 14.20049314983439
ERS-2                   
1 23560U 95021A   09011.49825408  .00000001  00000-0  16775-4 0  7072
2 23560  98.5651  88.7172 0000712  94.8213 265.3050 14.32241054717789
RADARSAT-1              
1 23710U 95059A   09011.35629757  .00000168  00000-0  82229-4 0  8380
2 23710  98.5790  20.3795 0000970  83.5130  29.2007 14.29979166688393
TOMS EP                 
1 23940U 96037A   09010.73309299  .00000041  00000-0  20596-4 0  9648
2 23940  98.0534 249.5619 0030220 121.4573 238.9593 14.52218187666573
MIDORI (ADEOS)          
1 24277U 96046A   09010.92443975 -.00000007  00000-0  13831-4 0  9684
2 24277  98.3416 342.1479 0001906  40.2851 319.8470 14.28591771646475
ORBVIEW 2 (SEASTAR)     
1 24883U 97037A   09011.33556752 -.00000012  00000-0  74106-5 0  6318
2 24883  98.3233 134.4408 0001477   6.9713 353.1518 14.59971491609555
IRS-1D                  
1 24971U 97057A   09011.45932273  .00000043  00000-0  30219-4 0  9151
2 24971  98.2617  55.0118 0055097  42.8147 317.7316 14.32964144590381
TRMM                    
1 25063U 97074A   09011.11307577  .00002306  00000-0  33154-4 0  9637
2 25063  34.9674 297.4071 0000814 251.5204 108.5385 15.55705355635615
SPOT 4                  
1 25260U 98017A   09011.41814934  .00000169  00000-0  10000-3 0  7296
2 25260  98.7184  86.7712 0000614  55.4119   2.3780 14.20032596560082
FASAT B                 
1 25395U 98043B   09010.97824285  .00000034  00000-0  32670-4 0  3648
2 25395  98.3538  49.9712 0002336 325.7073  34.3956 14.24329423546060
TECHSAT 1B (GO-32)      
1 25397U 98043D   09011.14851935 -.00000188  00000-0 -65179-4 0  7941
2 25397  98.3431  41.7870 0001440  32.0888 328.0382 14.23152680545799
LANDSAT 7               
1 25682U 99020A   09011.45589323  .00000008  00000-0  11799-4 0  3031
2 25682  98.2293  81.5867 0001173  66.3833 293.7495 14.57105478518256
KITSAT 3                
1 25756U 99029A   09011.31245061 -.00000007  00000-0  10105-4 0  8108
2 25756  98.6631 199.0079 0013290 291.5191  68.4586 14.52522022510387
DLR-TUBSAT              
1 25757U 99029B   09011.52242442 -.00000041  00000-0  16801-5 0  3970
2 25757  98.6735 190.0667 0013881 318.1282  41.8864 14.50835576509998
IRS-P4 (OCEANSAT 1)     
1 25758U 99029C   09010.82396476  .00000008  00000-0  13151-4 0   524
2 25758  98.2778 108.3596 0001431  52.8099 307.3223 14.50854953510048
QUIKSCAT                
1 25789U 99034A   09010.58920145 -.00000022  00000-0  91170-5 0  3318
2 25789  98.6316 201.7938 0001124  45.8645 314.2630 14.26780930497982
IKONOS 2                
1 25919U 99051A   09011.46577773 -.00000057  00000-0 -18078-5 0  4209
2 25919  98.1103  89.1209 0000896 118.2294 241.9011 14.64447661497123
CBERS 1 (ZY 1A)         
1 25940U 99057A   09011.47442696 -.00000006  00000-0  12101-4 0  4084
2 25940  98.1596  25.5537 0004984 181.0240 179.0945 14.34439695484344
TERRA                   
1 25994U 99068A   09011.47575166  .00000023  00000-0  15273-4 0  3051
2 25994  98.2198  88.7455 0001380 115.6162 244.5177 14.57105907482338
ARIRANG 1 (KOMPSAT-1)   
1 26032U 99070A   09011.47247255  .00000106  00000-0  27961-4 0  4615
2 26032  97.9452 257.5226 0005696  23.8374 336.3088 14.65574181484530
EO-1                    
1 26619U 00075A   09011.49295592  .00001376  00000-0  28467-3 0  6738
2 26619  98.1493  81.1115 0010374  80.5584 279.6807 14.61815999433374
SAC C                   
1 26620U 00075B   09010.87654610  .00000083  00000-0  28285-4 0  6150
2 26620  97.9327  51.4534 0001468  94.9361 265.2001 14.56547743432773
EROS A1                 
1 26631U 00079A   09011.52146056  .00000959  00000-0  43485-4 0  4169
2 26631  97.3414  79.1599 0008326 148.3693 315.7730 15.23159045450720
QUICKBIRD 2             
1 26953U 01047A   09011.48585648  .00002062  00000-0  53952-4 0  6160
2 26953  97.1628  91.6398 0002360  93.5470  83.6959 15.39861774406499
TES                     
1 26957U 01049A   09011.50323934 -.00000058  00000-0  10091-6 0  6890
2 26957  97.5576  93.3409 0024564   3.5482 356.5903 15.01022460395707
JASON 1                 
1 26997U 01055A   09010.45988537 -.00000038  00000-0  10000-3 0  9685
2 26997  66.0427  38.2663 0007407 267.4848  92.5320 12.80929938331835
METEOR-3M               
1 27001U 01056A   09010.86344340 -.00000019  00000-0  26624-4 0  3331
2 27001  99.2801 232.5453 0014295  85.6367 274.6411 13.68707199353996
BADR-B                  
1 27003U 01056C   09011.31503114  .00000116  00000-0  17993-3 0  2165
2 27003  99.2714 239.0399 0020838  88.4862 271.8631 13.70097165354478
MAROC-TUBSAT            
1 27004U 01056D   09010.77517219  .00000023  00000-0  74373-4 0  2316
2 27004  99.2686 237.9162 0020489  90.8653 269.4829 13.70025361354379
ENVISAT                 
1 27386U 02009A   09011.47716988 -.00000023  00000-0  77520-5 0  7684
2 27386  98.5469  81.1018 0001017  91.3030 268.8274 14.32249526359061
SPOT 5                  
1 27421U 02021A   09011.10270782 -.00000040  00000-0  19082-5 0  6514
2 27421  98.7943  85.2335 0001171  95.2810 264.8507 14.19994945346874
AQUA                    
1 27424U 02022A   09011.35994250  .00000045  00000-0  20193-4 0  1241
2 27424  98.2543 315.7190 0000963  80.7637 279.3687 14.57086624355926
HAIYANG-1A              
1 27430U 02024A   09011.37026490  .00000020  00000-0  24558-4 0  9659
2 27430  98.5039  81.4385 0008682 176.2342 183.8908 14.29683496347665
ALSAT 1                 
1 27559U 02054A   09011.37009309  .00000013  00000-0  11421-4 0  9549
2 27559  97.9675 251.3677 0009882 204.4987 155.5736 14.62996601326765
MIDORI II (ADEOS-II)    
1 27597U 02056A   09011.33339687  .00000001  00000-0  18171-4 0  7559
2 27597  98.4980  80.7324 0001452  58.7609 301.3703 14.26151401316430
ICESAT                  
1 27642U 03002A   09011.57991749  .00000082  00000-0  95938-5 0   954
2 27642  93.9928 213.2927 0003490  70.0313 290.1289 14.90879099326333
ORBVIEW 3               
1 27838U 03030A   09011.58707005  .00001636  00000-0  42769-4 0  1515
2 27838  97.0821  75.5776 0000938  81.1821  58.4414 15.40160744311299
IRS-P6 (RESOURCESAT-1)  
1 28051U 03046A   09011.37212713  .00000012  00000-0  25562-4 0  2042
2 28051  98.7322  89.0986 0001455 211.4218 148.6873 14.21620607271830
CBERS 2 (ZY 1B)         
1 28057U 03049A   09011.46062725 -.00001268  00000-0 -42760-3 0  9947
2 28057  98.3084  69.7452 0001434  12.8412 347.2740 14.35344568273922
TANSUO 1                
1 28220U 04012A   09011.16717059  .00000307  00000-0  38428-4 0   886
2 28220  97.5164  56.8438 0012019   1.8542 358.2753 14.88599570257053
FORMOSAT-2 (ROCSAT 2)   
1 28254U 04018A   09011.41745530  .00000106  00000-0  10000-3 0  2965
2 28254  98.8889  75.7351 0001444  60.8573 357.0447 14.00853049237571
AURA                    
1 28376U 04026A   09010.88470260  .00000038  00000-0  18574-4 0  3986
2 28376  98.2545 317.3960 0001012  88.9791 271.1534 14.57082107238906
PARASOL                 
1 28498U 04049G   09010.88041265 -.00000995  00000-0 -21089-3 0  3129
2 28498  98.2565 315.0111 0000906  94.4550 265.7068 14.57073410216175
IRS-P5 (CARTOSAT-1)     
1 28649U 05017A   09011.36989396  .00000028  00000-0  10037-4 0  1836
2 28649  97.8866  86.7871 0000949 120.2262 239.9065 14.82652746199625
TOPSAT                  
1 28891U 05043B   09011.47444555  .00000011  00000-0  11807-4 0  6102
2 28891  98.0723 265.7069 0018200 116.7736 243.5316 14.59746263171006
SINAH 1                 
1 28893U 05043D   09011.27788412 -.00000009  00000-0  75189-5 0  5601
2 28893  98.0739 266.2908 0016393 116.2519 244.0356 14.60062032171016
ALOS (DAICHI)           
1 28931U 06002A   09011.35973517 -.00000129  00000-0 -17356-4 0  3457
2 28931  98.2088  88.3664 0001029  96.0847 264.0462 14.59546308158026
EROS B                  
1 29079U 06014A   09011.39531499  .00001233  00000-0  57487-4 0   739
2 29079  97.4265 134.2731 0006334 215.9202 226.9133 15.21728267150676
RSS-1 (YAOGAN 1)        
1 29092U 06015A   09011.33775672  .00000055  00000-0  13872-4 0   452
2 29092  97.8301   9.2110 0000903  47.4777 312.6516 14.80297062146568
RESURS-DK 1             
1 29228U 06021A   09011.51580957  .00000591  00000-0  15249-4 0  9083
2 29228  69.9333  70.0405 0155914  58.3377 303.2902 15.35223902144327
ARIRANG 2 (KOMPSAT-2)   
1 29268U 06031A   09011.34715345  .00000042  00000-0  17839-4 0  7480
2 29268  98.0594 268.0996 0016972 280.9614  78.9679 14.61683798131171
LAPAN-TUBSAT            
1 29709U 07001A   09011.37488726 -.00000045  00000-0  80105-6 0  2196
2 29709  97.8394  70.9467 0014705  74.7999 285.4834 14.80238078108288
CARTOSAT-2 (IRS-P7)     
1 29710U 07001B   09011.39327591 -.00000007  00000-0  59199-5 0  2222
2 29710  97.9072  74.9500 0001681 123.3065 236.8302 14.78649234108210
HAIYANG-1B              
1 31113U 07010A   09011.35262860  .00000212  00000-0  10000-3 0  9573
2 31113  98.5648  87.8407 0014239 162.6411 197.5257 14.29409723 91530
COSMO-SKYMED 1          
1 31598U 07023A   09011.37035088  .00000008  00000-0  75476-5 0  7915
2 31598  97.8641 202.8127 0001226  83.2097 276.9255 14.82168662 86391
TERRASAR-X              
1 31698U 07026A   09011.37240125  .00000080  00000-0  69846-5 0  7597
2 31698  97.4455  21.0182 0001505  82.5368  27.9298 15.19152737 87463
WORLDVIEW-1 (WV-1)      
1 32060U 07041A   09011.33612941  .00000432  00000-0  20519-4 0  4729
2 32060  97.4478  89.9675 0001596  55.6677   8.7226 15.24438688 73197
CBERS 2B                
1 32062U 07042A   09011.37864691 -.00000013  00000-0  10699-4 0  4675
2 32062  98.5028  89.7518 0000725  65.0088 295.1181 14.35433119 68900
